[{"OBJECT_NAME":"STARLINK-2559","OBJECT_ID":"2021-036Y","EPOCH":"2026-03-09T07:39:05.886432","MEAN_MOTION":15.30196017,"ECCENTRICITY":0.0001598,"INCLINATION":53.1633,"RA_OF_ASC_NODE":77.1558,"ARG_OF_PERICENTER":106.0928,"MEAN_ANOMALY":254.0248,"EPHEMERIS_TYPE":0,"CLASSIFICATION_TYPE":"U","NORAD_CAT_ID":48298,"ELEMENT_SET_NO":999,"REV_AT_EPOCH":26835,"BSTAR":4.091783e-6,"MEAN_MOTION_DOT":-2.38e-6,"MEAN_MOTION_DDOT":0},{"OBJECT_NAME":"KUIPER-00213","OBJECT_ID":"2026-030P","EPOCH":"2026-03-09T22:00:01.999584","MEAN_MOTION":15.32626943,"ECCENTRICITY":0.00152813,"INCLINATION":51.8816,"RA_OF_ASC_NODE":218.5142,"ARG_OF_PERICENTER":64.2462,"MEAN_ANOMALY":206.8369,"EPHEMERIS_TYPE":0,"CLASSIFICATION_TYPE":"U","NORAD_CAT_ID":67777,"ELEMENT_SET_NO":999,"REV_AT_EPOCH":502,"BSTAR":0.0016072376,"MEAN_MOTION_DOT":0.00051551,"MEAN_MOTION_DDOT":0}]
